start=new Date('2023-04-18T00:00:00.000Z').valueOf();
sats=[{"EPOCH":"2023-04-17T22:00:00.999936","MEAN_MOTION_DDOT":"0.0000000000000","INCLINATION":"53.0561","LAUNCH_DATE":"2020-01-07","ARG_OF_PERICENTER":"85.1399","REV_AT_EPOCH":"130","RCS_SIZE":"LARGE","PERIOD":"91.633","CLASSIFICATION_TYPE":"U","ELEMENT_SET_NO":"999","SEMIMAJOR_AXIS":"6732.798","EPHEMERIS_TYPE":"0","TLE_LINE2":"2 44947  53.0561  24.8088 0001006  85.1399 141.2370 15.71481894  1302","APOAPSIS":"355.340","MEAN_MOTION":"15.71481894","CENTER_NAME":"EARTH","TLE_LINE1":"1 44947U 20001AK  23107.91667824  .01375490  00000-0  93470-2 0  9991","MEAN_MOTION_DOT":"0.01375490","DECAY_DATE":null,"RA_OF_ASC_NODE":"24.8088","SITE":"AFETR","OBJECT_TYPE":"PAYLOAD","NORAD_CAT_ID":"44947","REF_FRAME":"TEME","OBJECT_NAME":"STARLINK-1116","FILE":"3889391","GP_ID":"230260685","PERIAPSIS":"353.986","ECCENTRICITY":"0.00010060","MEAN_ANOMALY":"141.2370","BSTAR":"0.00934700000000","OBJECT_ID":"2020-001AK","MEAN_ELEMENT_THEORY":"SGP4","COUNTRY_CODE":"US","TIME_SYSTEM":"UTC"},{"MEAN_MOTION_DOT":"0.00030953","TLE_LINE1":"1 44949U 20001AM  23107.25505782  .00030953  00000-0  20892-2 0  9993","CENTER_NAME":"EARTH","MEAN_MOTION":"15.06374499","TLE_LINE2":"2 44949  53.0542  33.6241 0001318  58.5572 301.5546 15.06374499180747","APOAPSIS":"548.204","SEMIMAJOR_AXIS":"6925.427","EPHEMERIS_TYPE":"0","ELEMENT_SET_NO":"999","CLASSIFICATION_TYPE":"U","PERIOD":"95.594","RCS_SIZE":"LARGE","REV_AT_EPOCH":"18074","ARG_OF_PERICENTER":"58.5572","MEAN_MOTION_DDOT":"0.0000000000000","EPOCH":"2023-04-17T06:07:16.995648","INCLINATION":"53.0542","LAUNCH_DATE":"2020-01-07","MEAN_ELEMENT_THEORY":"SGP4","TIME_SYSTEM":"UTC","COUNTRY_CODE":"US","BSTAR":"0.00208920000000","OBJECT_ID":"2020-001AM","MEAN_ANOMALY":"301.5546","ECCENTRICITY":"0.00013180","PERIAPSIS":"546.379","FILE":"3889215","GP_ID":"230229796","OBJECT_NAME":"STARLINK-1122","NORAD_CAT_ID":"44949","REF_FRAME":"TEME","OBJECT_TYPE":"PAYLOAD","SITE":"AFETR","RA_OF_ASC_NODE":"33.6241","DECAY_DATE":null},{"BSTAR":"0.00448300000000","OBJECT_ID":"2020-001AN","MEAN_ELEMENT_THEORY":"SGP4","COUNTRY_CODE":"US","TIME_SYSTEM":"UTC","ECCENTRICITY":"0.00073890","PERIAPSIS":"439.179","MEAN_ANOMALY":"207.2959","NORAD_CAT_ID":"44950","REF_FRAME":"TEME","OBJECT_TYPE":"PAYLOAD","SITE":"AFETR","GP_ID":"230261686","FILE":"3889391","OBJECT_NAME":"STARLINK-1125","RA_OF_ASC_NODE":"4.2191","DECAY_DATE":null,"TLE_LINE1":"1 44950U 20001AN  23107.86508168  .00189866  00000-0  44830-2 0  9999","MEAN_MOTION_DOT":"0.00189866","MEAN_MOTION":"15.40640294","TLE_LINE2":"2 44950  53.0550   4.2191 0007389 152.8432 207.2959 15.40640294181213","APOAPSIS":"449.261","CENTER_NAME":"EARTH","ELEMENT_SET_NO":"999","CLASSIFICATION_TYPE":"U","SEMIMAJOR_AXIS":"6822.355","EPHEMERIS_TYPE":"0","ARG_OF_PERICENTER":"152.8432","REV_AT_EPOCH":"18121","MEAN_MOTION_DDOT":"0.0000000000000","EPOCH":"2023-04-17T20:45:43.057152","LAUNCH_DATE":"2020-01-07","INCLINATION":"53.0550","RCS_SIZE":"LARGE","PERIOD":"93.468"},{"MEAN_MOTION":"15.38403501","APOAPSIS":"455.133","TLE_LINE2":"2 44951  53.0202 345.9079 0006299 173.9022 238.5967 15.38403501  1308","CENTER_NAME":"EARTH","TLE_LINE1":"1 44951U 20001AP  23107.91667824  .00127073  00000-0  32594-2 0  9997","MEAN_MOTION_DOT":"0.00127073","REV_AT_EPOCH":"130","ARG_OF_PERICENTER":"173.9022","LAUNCH_DATE":"2020-01-07","INCLINATION":"53.0202","MEAN_MOTION_DDOT":"0.0000000000000","EPOCH":"2023-04-17T22:00:00.999936","PERIOD":"93.604","RCS_SIZE":"LARGE","ELEMENT_SET_NO":"999","CLASSIFICATION_TYPE":"U","EPHEMERIS_TYPE":"0","SEMIMAJOR_AXIS":"6828.967","ECCENTRICITY":"0.00062990","PERIAPSIS":"446.530","MEAN_ANOMALY":"238.5967","OBJECT_ID":"2020-001AP","BSTAR":"0.00325940000000","COUNTRY_CODE":"US","TIME_SYSTEM":"UTC","MEAN_ELEMENT_THEORY":"SGP4","DECAY_DATE":null,"RA_OF_ASC_NODE":"345.9079","REF_FRAME":"TEME","NORAD_CAT_ID":"44951","SITE":"AFETR","OBJECT_TYPE":"PAYLOAD","FILE":"3889391","GP_ID":"230260936","OBJECT_NAME":"STARLINK-1126"},{"EPHEMERIS_TYPE":"0","SEMIMAJOR_AXIS":"6925.596","CLASSIFICATION_TYPE":"U","ELEMENT_SET_NO":"999","PERIOD":"95.597","RCS_SIZE":"LARGE","INCLINATION":"53.0549","LAUNCH_DATE":"2020-01-07","MEAN_MOTION_DDOT":"0.0000000000000","EPOCH":"2023-04-17T04:05:12.363936","ARG_OF_PERICENTER":"136.3437","REV_AT_EPOCH":"18073","MEAN_MOTION_DOT":"0.00026364","TLE_LINE1":"1 44952U 20001AQ  23107.17028199  .00026364  00000-0  17861-2 0  9993","CENTER_NAME":"EARTH","APOAPSIS":"548.359","TLE_LINE2":"2 44952  53.0549  34.0046 0001296 136.3437 223.7655 15.06319123180734","MEAN_MOTION":"15.06319123","OBJECT_NAME":"STARLINK-1117","FILE":"3889215","GP_ID":"230230278","SITE":"AFETR","OBJECT_TYPE":"PAYLOAD","REF_FRAME":"TEME","NORAD_CAT_ID":"44952","DECAY_DATE":null,"RA_OF_ASC_NODE":"34.0046","COUNTRY_CODE":"US","TIME_SYSTEM":"UTC","MEAN_ELEMENT_THEORY":"SGP4","OBJECT_ID":"2020-001AQ","BSTAR":"0.00178610000000","MEAN_ANOMALY":"223.7655","ECCENTRICITY":"0.00012960","PERIAPSIS":"546.564"},{"TLE_LINE2":"2 44953  53.0542  33.6272 0001103 130.6516 229.4569 15.06370800182037","APOAPSIS":"548.067","MEAN_MOTION":"15.06370800","CENTER_NAME":"EARTH","TLE_LINE1":"1 44953U 20001AR  23107.25410596  .00025694  00000-0  17389-2 0  9999","MEAN_MOTION_DOT":"0.00025694","INCLINATION":"53.0542","LAUNCH_DATE":"2020-01-07","EPOCH":"2023-04-17T06:05:54.754944","MEAN_MOTION_DDOT":"0.0000000000000","REV_AT_EPOCH":"18203","ARG_OF_PERICENTER":"130.6516","PERIOD":"95.594","RCS_SIZE":"LARGE","CLASSIFICATION_TYPE":"U","ELEMENT_SET_NO":"999","EPHEMERIS_TYPE":"0","SEMIMAJOR_AXIS":"6925.438","PERIAPSIS":"546.539","ECCENTRICITY":"0.00011030","MEAN_ANOMALY":"229.4569","OBJECT_ID":"2020-001AR","BSTAR":"0.00173890000000","COUNTRY_CODE":"US","TIME_SYSTEM":"UTC","MEAN_ELEMENT_THEORY":"SGP4","RA_OF_ASC_NODE":"33.6272","DECAY_DATE":null,"SITE":"AFETR","OBJECT_TYPE":"PAYLOAD","REF_FRAME":"TEME","NORAD_CAT_ID":"44953","OBJECT_NAME":"STARLINK-1124","GP_ID":"230241137","FILE":"3889340"},{"DECAY_DATE":null,"RA_OF_ASC_NODE":"13.8636","OBJECT_NAME":"STARLINK-1066","FILE":"3889215","GP_ID":"230230547","OBJECT_TYPE":"PAYLOAD","SITE":"AFETR","REF_FRAME":"TEME","NORAD_CAT_ID":"44954","MEAN_ANOMALY":"300.8421","ECCENTRICITY":"0.00008360","PERIAPSIS":"546.763","COUNTRY_CODE":"US","TIME_SYSTEM":"UTC","MEAN_ELEMENT_THEORY":"SGP4","OBJECT_ID":"2020-001AS","BSTAR":"0.00241710000000","RCS_SIZE":"LARGE","PERIOD":"95.595","LAUNCH_DATE":"2020-01-07","INCLINATION":"53.0550","EPOCH":"2023-04-17T04:50:19.456512","MEAN_MOTION_DDOT":"0.0000000000000","REV_AT_EPOCH":"18096","ARG_OF_PERICENTER":"59.2650","EPHEMERIS_TYPE":"0","SEMIMAJOR_AXIS":"6925.477","CLASSIFICATION_TYPE":"U","ELEMENT_SET_NO":"999","CENTER_NAME":"EARTH","APOAPSIS":"547.921","TLE_LINE2":"2 44954  53.0550  13.8636 0000836  59.2650 300.8421 15.06357957180967","MEAN_MOTION":"15.06357957","MEAN_MOTION_DOT":"0.00035864","TLE_LINE1":"1 44954U 20001AS  23107.20161408  .00035864  00000-0  24171-2 0  9997"},{"BSTAR":"0.00264090000000","OBJECT_ID":"2020-001AT","MEAN_ELEMENT_THEORY":"SGP4","TIME_SYSTEM":"UTC","COUNTRY_CODE":"US","PERIAPSIS":"546.653","ECCENTRICITY":"0.00007660","MEAN_ANOMALY":"280.6809","NORAD_CAT_ID":"44955","REF_FRAME":"TEME","SITE":"AFETR","OBJECT_TYPE":"PAYLOAD","FILE":"3889391","GP_ID":"230260437","OBJECT_NAME":"STARLINK-1069","RA_OF_ASC_NODE":"10.8552","DECAY_DATE":null,"TLE_LINE1":"1 44955U 20001AT  23107.87246398  .00039285  00000-0  26409-2 0  9990","MEAN_MOTION_DOT":"0.00039285","MEAN_MOTION":"15.06409690","TLE_LINE2":"2 44955  53.0566  10.8552 0000766  79.4266 280.6809 15.06409690181067","APOAPSIS":"547.714","CENTER_NAME":"EARTH","ELEMENT_SET_NO":"999","CLASSIFICATION_TYPE":"U","SEMIMAJOR_AXIS":"6925.319","EPHEMERIS_TYPE":"0","REV_AT_EPOCH":"18106","ARG_OF_PERICENTER":"79.4266","MEAN_MOTION_DDOT":"0.0000000000000","EPOCH":"2023-04-17T20:56:20.887872","INCLINATION":"53.0566","LAUNCH_DATE":"2020-01-07","PERIOD":"95.592","RCS_SIZE":"LARGE"},{"RA_OF_ASC_NODE":"10.8697","DECAY_DATE":null,"SITE":"AFETR","OBJECT_TYPE":"PAYLOAD","REF_FRAME":"TEME","NORAD_CAT_ID":"44956","OBJECT_NAME":"STARLINK-1070","GP_ID":"230260686","FILE":"3889391","ECCENTRICITY":"0.00013160","PERIAPSIS":"546.241","MEAN_ANOMALY":"265.8998","OBJECT_ID":"2020-001AU","BSTAR":"0.00181420000000","TIME_SYSTEM":"UTC","COUNTRY_CODE":"US","MEAN_ELEMENT_THEORY":"SGP4","INCLINATION":"53.0557","LAUNCH_DATE":"2020-01-07","MEAN_MOTION_DDOT":"0.0000000000000","EPOCH":"2023-04-17T20:49:40.296864","ARG_OF_PERICENTER":"94.2141","REV_AT_EPOCH":"18112","RCS_SIZE":"LARGE","PERIOD":"95.591","CLASSIFICATION_TYPE":"U","ELEMENT_SET_NO":"999","EPHEMERIS_TYPE":"0","SEMIMAJOR_AXIS":"6925.288","APOAPSIS":"548.064","TLE_LINE2":"2 44956  53.0557  10.8697 0001316  94.2141 265.8998 15.06419864181122","MEAN_MOTION":"15.06419864","CENTER_NAME":"EARTH","TLE_LINE1":"1 44956U 20001AU  23107.86782751  .00026859  00000-0  18142-2 0  9996","MEAN_MOTION_DOT":"0.00026859"},{"OBJECT_NAME":"STARLINK-1074","FILE":"3889391","GP_ID":"230261938","SITE":"AFETR","OBJECT_TYPE":"PAYLOAD","REF_FRAME":"TEME","NORAD_CAT_ID":"44957","DECAY_DATE":null,"RA_OF_ASC_NODE":"10.7509","TIME_SYSTEM":"UTC","COUNTRY_CODE":"US","MEAN_ELEMENT_THEORY":"SGP4","OBJECT_ID":"2020-001AV","BSTAR":"0.00245050000000","MEAN_ANOMALY":"269.2943","PERIAPSIS":"546.483","ECCENTRICITY":"0.00011400","EPHEMERIS_TYPE":"0","SEMIMAJOR_AXIS":"6925.407","CLASSIFICATION_TYPE":"U","ELEMENT_SET_NO":"999","PERIOD":"95.593","RCS_SIZE":"LARGE","INCLINATION":"53.0559","LAUNCH_DATE":"2020-01-07","MEAN_MOTION_DDOT":"0.0000000000000","EPOCH":"2023-04-17T21:26:49.531776","REV_AT_EPOCH":"18112","ARG_OF_PERICENTER":"90.8177","MEAN_MOTION_DOT":"0.00036389","TLE_LINE1":"1 44957U 20001AV  23107.89362884  .00036389  00000-0  24505-2 0  9990","CENTER_NAME":"EARTH","APOAPSIS":"548.062","TLE_LINE2":"2 44957  53.0559  10.7509 0001140  90.8177 269.2943 15.06380921181121","MEAN_MOTION":"15.06380921"}];
